STARLINK-4313           
1 53064U 22077X   22219.50001157 -.01223130  00000+0 -23651-1 0  9992
2 53064  97.6554  39.2976 0001892  79.9687  63.7184 15.50427919  4879
STARLINK-4312           
1 53065U 22077Y   22219.16667824 -.01233403  00000+0 -22905-1 0  9999
2 53065  97.6557  38.9398 0001735  81.0385   6.0877 15.51583720  4820
STARLINK-4309           
1 53066U 22077Z   22219.16667824 -.01231540  00000+0 -22953-1 0  9993
2 53066  97.6557  38.9413 0001849  90.2588 355.2734 15.51478116  4825
STARLINK-4306           
1 53067U 22077AA  22219.50001157 -.01218181  00000+0 -23223-1 0  9990
2 53067  97.6553  39.2937 0001967  66.7037  83.0635 15.50815466  4878
STARLINK-4325           
1 53068U 22077AB  22219.16667824 -.01207179  00000+0 -22296-1 0  9996
2 53068  97.6557  38.9391 0001893  80.4728   7.4636 15.51677357  4823
STARLINK-4323           
1 53069U 22077AC  22219.50001157 -.01226469  00000+0 -23303-1 0  9999
2 53069  97.6553  39.2919 0001863  91.8983  59.5564 15.50928255  4874
STARLINK-4342           
1 53070U 22077AD  22219.16667824 -.01215030  00000+0 -22450-1 0  9996
2 53070  97.6557  38.9393 0002008  64.2421  24.4716 15.51682307  4826
STARLINK-4328           
1 53071U 22077AE  22219.50001157 -.01210943  00000+0 -22385-1 0  9991
2 53071  97.6554  39.2915 0001973  84.2502  69.2673 15.51660613  4870
STARLINK-4344           
1 53072U 22077AF  22219.50001157 -.01216469  00000+0 -23171-1 0  9995
2 53072  97.6553  39.2926 0001919  70.7093  79.8655 15.50835523  4877
STARLINK-4346           
1 53073U 22077AG  22219.50001157 -.01002307  00000+0 -18480-1 0  9997
2 53073  97.6551  39.2903 0001972  85.4696  69.6813 15.51664239  4870
STARLINK-4310           
1 53074U 22077AH  22219.50001157 -.01224656  00000+0 -23194-1 0  9999
2 53074  97.6553  39.2910 0001869  93.1683  59.1641 15.51014129  4878
STARLINK-4348           
1 53075U 22077AJ  22219.50001157 -.00741805  00000+0 -13516-1 0  9996
2 53075  97.6547  39.2892 0001844  87.5362  69.2590 15.51665978  4874
STARLINK-4347           
1 53076U 22077AK  22219.50001157 -.01156903  00000+0 -21610-1 0  9991
2 53076  97.6552  39.2907 0001806  83.0928  71.2230 15.51701254  4877
STARLINK-4315           
1 53077U 22077AL  22219.50001157 -.00596136  00000+0 -10821-1 0  9999
2 53077  97.6549  39.2887 0001812  79.1843  79.2119 15.51650935  4873
STARLINK-4322           
1 53078U 22077AM  22219.53657066  .00011719  00000+0  19800-3 0  9994
2 53078  97.6551  39.3330 0001754  74.1599 285.9846 15.51785369  4883
STARLINK-4327           
1 53079U 22077AN  22219.50001157 -.00607095  00000+0 -10983-1 0  9997
2 53079  97.6545  39.2883 0001726  75.3382  83.8065 15.51783545  4872
STARLINK-4330           
1 53080U 22077AP  22219.50001157 -.00724440  00000+0 -13328-1 0  9999
2 53080  97.6551  39.2897 0001864  70.9815  86.5851 15.51726317  4878
STARLINK-4326           
1 53081U 22077AQ  22219.50001157 -.00603481  00000+0 -10886-1 0  9997
2 53081  97.6550  39.2874 0001811  80.2517  80.4248 15.51851195  4874
STARLINK-4321           
1 53082U 22077AR  22219.50001157 -.00609042  00000+0 -11000-1 0  9996
2 53082  97.6552  39.2885 0001722  77.9229  81.9891 15.51836541  4871
STARLINK-4251           
1 53083U 22077AS  22218.91667824  .00018231  00000+0  30718-3 0  9991
2 53083  97.6587  38.6650 0001730  71.6039 352.4781 15.51751568  1306
STARLINK-4319           
1 53084U 22077AT  22219.50001157 -.00562205  00000+0 -10109-1 0  9996
2 53084  97.6551  39.2880 0001610  83.6650  77.8404 15.51797780  4870
STARLINK-4324           
1 53085U 22077AU  22219.50001157 -.00701292  00000+0 -12749-1 0  9990
2 53085  97.6549  39.2876 0001783  70.1008  93.3782 15.51977828  4877
STARLINK-4318           
1 53086U 22077AV  22219.50001157 -.00640761  00000+0 -11610-1 0  9990
2 53086  97.6548  39.2871 0001781  79.8556  82.8770 15.51857802  4873
STARLINK-4329           
1 53087U 22077AW  22219.16667824 -.00055086  00000+0 -92789-3 0  9990
2 53087  97.6556  38.9357 0001978  78.0128  26.1013 15.51808695  4824
STARLINK-4333           
1 53088U 22077AX  22219.16667824 -.00096114  00000+0 -16294-2 0  9994
2 53088  97.6557  38.9338 0001629  75.3988  27.9992 15.51796457  4829
TIANLIAN 2-03           
1 53100U 22078A   22218.89841234  .00000079  00000+0  00000+0 0  9996
2 53100   2.9659 284.7367 0002531 191.1056 173.6481  1.00274294   417
LARES-2                 
1 53105U 22080A   22215.50201548 -.00000002  00000+0  00000+0 0  9994
2 53105  70.1542  70.1720 0005630 279.2946  80.7236  6.38965209  1347
MTCUBE 2 (ROBUSTA 1F)   
1 53106U 22080B   22211.33861881 -.00000003  00000+0  00000+0 0  9995
2 53106  70.1538  71.5470 0009035 255.0213 104.9458  6.42558285  1074
ASTROBIOCUBESAT         
1 53107U 22080C   22218.35904660 -.00000003  00000+0  00000+0 0  9998
2 53107  70.1578  69.1297 0013067 244.8404 115.0953  6.42110778  1420
TRISAT-R                
1 53108U 22080D   22211.19341476 -.00000003  00000+0  00000+0 0  9994
2 53108  70.1600  71.6179 0012832 256.8385 103.0842  6.42152317   972
GREENCUBE               
1 53109U 22080E   22218.96411721 -.00000003  00000+0  00000+0 0  9998
2 53109  70.1371  68.7006 0009224 238.5329 121.4413  6.42583771  1454
2022-080F               
1 53110U 22080F   22210.25111416 -.00000003  00000+0  00000+0 0  9992
2 53110  70.1738  71.9397 0102404 131.0692 230.8485  6.42502823   896
CELESTA                 
1 53111U 22080G   22209.16019017 -.00000003  00000+0  00000+0 0  9995
2 53111  70.1517  72.3224 0015664 220.2144 139.7964  6.42532870   816
DRAGON CRS-25           
1 53113U 22081A   22218.55535891  .00004937  00000+0  93619-4 0  9996
2 53113  51.6436  87.0783 0005353  89.6538   4.1917 15.50250164352997
SUPERVIEW NEO-2 O1      
1 53128U 22082A   22219.53334990  .00002281  00000+0  95092-4 0  9996
2 53128  97.3851 227.2125 0013005 179.6126 296.8226 15.24649638  3440
CZ-2C DEB               
1 53129U 22082B   22218.91135594  .00014110  00000+0  55642-3 0  9997
2 53129  97.3855 226.6228 0013558 187.7559 172.3472 15.25590831  3357
SUPERVIEW NEO-2 02      
1 53130U 22082C   22219.52918696 -.00121102  00000+0 -49849-2 0  9992
2 53130  97.3877 227.2345 0011465 188.7945 326.8136 15.24587901  3441
STARLINK-4063           
1 53132U 22083A   22218.91667824 -.00002980  00000+0 -16812-4 0  9999
2 53132  53.2172 306.2529 0002042  21.2494  55.6651 15.73202657  1303
STARLINK-4154           
1 53133U 22083B   22219.50001157  .00005003  00000+0  40109-4 0  9990
2 53133  53.2169 303.3757 0003436   5.2865 133.6322 15.73170104  3948
STARLINK-4150           
1 53134U 22083C   22219.16667824  .00065711  00000+0  46973-3 0  9998
2 53134  53.2176 305.0200 0001872  27.6421  24.1703 15.73160636  3886
STARLINK-4023           
1 53135U 22083D   22218.91667824 -.00001372  00000+0 -53563-5 0  9991
2 53135  53.2171 306.2591 0001988  19.1437  54.7836 15.73189903  1308
STARLINK-4152           
1 53136U 22083E   22219.50001157 -.00042784  00000+0 -30149-3 0  9994
2 53136  53.2171 303.3730 0002239  27.5118 112.6259 15.73233406  3944
STARLINK-4145           
1 53137U 22083F   22219.16667824  .00065119  00000+0  46576-3 0  9992
2 53137  53.2179 305.0206 0003442   9.7210  42.7034 15.73146797  3885
STARLINK-4141           
1 53138U 22083G   22219.50001157 -.00032621  00000+0 -22861-3 0  9997
2 53138  53.2170 302.8625 0002262  22.1848   6.1790 15.73225972  3945
STARLINK-4185           
1 53139U 22083H   22219.47467072  .00011029  00000+0  82870-4 0  9990
2 53139  53.2175 303.4924 0001674  26.3585 333.7520 15.73208743  3936
STARLINK-4170           
1 53140U 22083J   22218.91667824 -.00001124  00000+0 -35803-5 0  9999
2 53140  53.2174 306.2527 0002057  24.7839  52.7280 15.73207953  1309
STARLINK-4103           
1 53141U 22083K   22218.91667824 -.00002300  00000+0 -11967-4 0  9991
2 53141  53.2175 306.2474 0002028  18.3836  62.0944 15.73190296  1308
STARLINK-4101           
1 53142U 22083L   22219.50001157  .00004173  00000+0  34141-4 0  9996
2 53142  53.2174 303.3659 0003768 346.9214 157.3838 15.73205974  3945
STARLINK-4102           
1 53143U 22083M   22219.16667824  .00044294  00000+0  31964-3 0  9995
2 53143  53.2178 305.0085 0002066  24.5827  33.3428 15.73104291  3882
STARLINK-4100           
1 53144U 22083N   22219.16667824  .00066946  00000+0  47849-3 0  9993
2 53144  53.2181 305.0137 0002392  17.6141  38.3819 15.73155659  3882
STARLINK-4106           
1 53145U 22083P   22219.50001157 -.00009756  00000+0 -65141-4 0  9997
2 53145  53.2179 303.3601 0002142  25.7488 122.1651 15.73206998  3940
STARLINK-4099           
1 53146U 22083Q   22218.91667824 -.00000990  00000+0 -26122-5 0  9999
2 53146  53.2179 306.2499 0003024  10.3292  69.5639 15.73197322  1309
STARLINK-4094           
1 53147U 22083R   22219.21971788  .00002530  00000+0  22441-4 0  9990
2 53147  53.2178 304.7425 0001880  34.5350 325.5792 15.73206899  3893
STARLINK-4066           
1 53148U 22083S   22219.50001157 -.00062590  00000+0 -44405-3 0  9994
2 53148  53.2175 303.3596 0002100  24.5838 122.6790 15.73239310  3945
STARLINK-4021           
1 53149U 22083T   22219.16667824  .00069275  00000+0  49488-3 0  9997
2 53149  53.2175 304.9880 0002199  33.6951  33.6361 15.73154389  3884
STARLINK-4038           
1 53150U 22083U   22218.91667824 -.00003061  00000+0 -17388-4 0  9999
2 53150  53.2174 306.2403 0002002  22.3295  61.1532 15.73202814  1308
STARLINK-4040           
1 53151U 22083V   22218.91667824 -.00000759  00000+0 -98621-6 0  9992
2 53151  53.2184 306.2410 0001861  15.4226  69.8000 15.73195257  1304
STARLINK-4045           
1 53152U 22083W   22219.16667824  .00068193  00000+0  48715-3 0  9991
2 53152  53.2183 305.0051 0002241  32.2258  28.5721 15.73160589  3884
STARLINK-4098           
1 53153U 22083X   22219.16667824  .00065869  00000+0  47099-3 0  9993
2 53153  53.2180 305.0002 0001880  24.9682  37.5955 15.73153262  3884
